H1 CPF 01  gfz 2021 06 08 12  6592 terrasarx 
H2 0702601  6201 31698    2021 06 08 12 59 42 2021 06 13 00 00 42   120 1 1  0 0 0
H9
10 0 59376  52542.000000  0    1085238.902    -63548.472   6791570.605
10 0 59376  52662.000000  0     511755.971   -783070.706   6814046.617
10 0 59376  52782.000000  0     -83035.859  -1478709.074   6716808.791
10 0 59376  52902.000000  0    -688234.436  -2138047.723   6501554.802
10 0 59376  53022.000000  0   -1292543.745  -2749492.708   6172043.031
10 0 59376  53142.000000  0   -1884482.306  -3302475.909   5734029.912
10 0 59376  53262.000000  0   -2452599.803  -3787639.947   5195176.876
10 0 59376  53382.000000  0   -2985700.821  -4197001.720   4564924.175
10 0 59376  53502.000000  0   -3473069.635  -4524089.682   3854330.302
10 0 59376  53622.000000  0   -3904688.837  -4764051.421   3075880.209
10 0 59376  53742.000000  0   -4271447.446  -4913730.050   2243266.727
10 0 59376  53862.000000  0   -4565335.763  -4971707.748   1371147.873
10 0 59376  53982.000000  0   -4779621.100  -4938313.555    474883.459
10 0 59376  54102.000000  0   -4908999.561  -4815595.606   -429742.589
10 0 59376  54222.000000  0   -4949720.271  -4607258.505  -1326809.137
10 0 59376  54342.000000  0   -4899677.756  -4318566.633  -2200547.918
10 0 59376  54462.000000  0   -4758469.809  -3956215.570  -3035628.691
10 0 59376  54582.000000  0   -4527420.482  -3528176.625  -3817432.317
10 0 59376  54702.000000  0   -4209568.919  -3043519.551  -4532307.391
10 0 59376  54822.000000  0   -3809624.511  -2512217.176  -5167806.052
10 0 59376  54942.000000  0   -3333889.815  -1944937.179  -5712894.279
10 0 59376  55062.000000  0   -2790154.344  -1352826.194  -6158134.282
10 0 59376  55182.000000  0   -2187561.453   -747290.391  -6495837.393
10 0 59376  55302.000000  0   -1536450.329   -139777.279  -6720185.227
10 0 59376  55422.000000  0    -848178.049    458436.645  -6827317.963
10 0 59376  55542.000000  0    -134925.023   1036449.518  -6815393.391
10 0 59376  55662.000000  0     590515.392   1583927.671  -6684614.810
10 0 59376  55782.000000  0    1314959.888   2091285.291  -6437229.970
10 0 59376  55902.000000  0    2025070.379   2549850.003  -6077497.132
10 0 59376  56022.000000  0    2707595.145   2952010.398  -5611619.509
10 0 59376  56142.000000  0    3349613.025   3291342.734  -5047647.513
10 0 59376  56262.000000  0    3938777.198   3562716.516  -4395352.093
10 0 59376  56382.000000  0    4463555.711   3762376.538  -3666066.393
10 0 59376  56502.000000  0    4913462.750   3887998.361  -2872497.225
10 0 59376  56622.000000  0    5279273.898   3938715.821  -2028508.794
10 0 59376  56742.000000  0    5553221.831   3915120.302  -1148882.606
10 0 59376  56862.000000  0    5729166.685   3819229.838   -249056.536
10 0 59376  56982.000000  0    5802736.499   3654429.401    655150.525
10 0 59376  57102.000000  0    5771434.225   3425382.738   1547824.214
10 0 59376  57222.000000  0    5634706.555   3137917.472   2413243.610
10 0 59376  57342.000000  0    5393973.612   2798887.700   3236166.768
10 0 59376  57462.000000  0    5052618.243   2416016.356   4002107.397
10 0 59376  57582.000000  0    4615934.066   1997721.226   4697594.757
10 0 59376  57702.000000  0    4091037.950   1552930.865   5310410.535
10 0 59376  57822.000000  0    3486747.250   1090894.499   5829804.934
10 0 59376  57942.000000  0    2813421.385    620988.634   6246681.087
10 0 59376  58062.000000  0    2082777.624    152527.246   6553746.456
10 0 59376  58182.000000  0    1307684.164   -305421.066   6745634.729
10 0 59376  58302.000000  0     501930.851   -744207.926   6818995.923
10 0 59376  58422.000000  0    -320018.003  -1155768.022   6772550.488
10 0 59376  58542.000000  0   -1143282.995  -1532766.830   6607109.569
10 0 59376  58662.000000  0   -1952837.983  -1868731.448   6325560.427
10 0 59376  58782.000000  0   -2733781.979  -2158160.984   5932818.805
10 0 59376  58902.000000  0   -3471613.439  -2396617.509   5435751.457
10 0 59376  59022.000000  0   -4152504.840  -2580796.490   4843062.716
10 0 59376  59142.000000  0   -4763567.042  -2708573.111   4165146.267
10 0 59376  59262.000000  0   -5293099.572  -2779023.384   3413906.287
10 0 59376  59382.000000  0   -5730821.799  -2792420.160   2602551.035
10 0 59376  59502.000000  0   -6068081.124  -2750204.894   1745360.916
10 0 59376  59622.000000  0   -6298032.282  -2654935.521    857432.739
10 0 59376  59742.000000  0   -6415780.513  -2510208.843    -45593.752
10 0 59376  59862.000000  0   -6418487.187  -2320561.588   -947819.227
10 0 59376  59982.000000  0   -6305433.633  -2091351.739  -1833374.973
10 0 59376  60102.000000  0   -6078040.414  -1828623.831  -2686710.249
10 0 59376  60222.000000  0   -5739844.367  -1538961.874  -3492870.815
10 0 59376  60342.000000  0   -5296434.044  -1229333.774  -4237763.582
10 0 59376  60462.000000  0   -4755345.996   -906931.320  -4908402.011
10 0 59376  60582.000000  0   -4125924.762   -579009.140  -5493128.282
10 0 59376  60702.000000  0   -3419149.901   -252727.035  -5981807.749
10 0 59376  60822.000000  0   -2647435.941     65001.124  -6365993.413
10 0 59376  60942.000000  0   -1824409.866    367648.420  -6639059.957
10 0 59376  61062.000000  0    -964669.292    649203.085  -6796306.932
10 0 59376  61182.000000  0     -83526.750    904283.510  -6835030.379
10 0 59376  61302.000000  0     803256.296   1128237.721  -6754563.233
10 0 59376  61422.000000  0    1679743.841   1317225.216  -6556288.033
10 0 59376  61542.000000  0    2530106.413   1468282.354  -6243616.518
10 0 59376  61662.000000  0    3338902.258   1579368.533  -5821936.713
10 0 59376  61782.000000  0    4091354.079   1649392.399  -5298528.329
10 0 59376  61902.000000  0    4773618.924   1678218.665  -4682449.198
10 0 59376  62022.000000  0    5373047.790   1666655.159  -3984389.675
10 0 59376  62142.000000  0    5878427.190   1616419.335  -3216496.329
10 0 59376  62262.000000  0    6280198.626   1530084.955  -2392168.537
10 0 59376  62382.000000  0    6570651.944   1411010.267  -1525828.805
10 0 59376  62502.000000  0    6744085.112   1263248.414   -632669.669
10 0 59376  62622.000000  0    6796926.039   1091441.515    271617.052
10 0 59376  62742.000000  0    6727811.431    900702.269   1171122.460
10 0 59376  62862.000000  0    6537624.269    696485.337   2050007.722
10 0 59376  62982.000000  0    6229484.968    484450.707   2892793.284
10 0 59376  63102.000000  0    5808696.272    270323.903   3684639.139
10 0 59376  63222.000000  0    5282644.733     59756.082   4411612.564
10 0 59376  63342.000000  0    4660662.042   -141810.694   5060935.227
10 0 59376  63462.000000  0    3953849.790   -329272.812   5621209.322
10 0 59376  63582.000000  0    3174870.245   -497983.909   6082614.057
10 0 59376  63702.000000  0    2337711.764   -643860.115   6437072.511
10 0 59376  63822.000000  0    1457432.443   -763471.389   6678387.270
10 0 59376  63942.000000  0     549885.305   -854116.766   6802344.137
10 0 59376  64062.000000  0    -368569.534   -913881.796   6806780.240
10 0 59376  64182.000000  0   -1281359.225   -941677.707   6691618.297
10 0 59376  64302.000000  0   -2171995.850   -937261.275   6458867.320
10 0 59376  64422.000000  0   -3024372.403   -901234.873   6112589.585
10 0 59376  64542.000000  0   -3823054.303   -835026.988   5658835.913
10 0 59376  64662.000000  0   -4553563.037   -740854.300   5105546.889
10 0 59376  64782.000000  0   -5202645.395   -621665.384   4462419.741
10 0 59376  64902.000000  0   -5758522.008   -481066.716   3740742.419
10 0 59376  65022.000000  0   -6211109.705   -323232.622   2953197.873
10 0 59376  65142.000000  0   -6552214.307   -152800.973   2113642.711
10 0 59376  65262.000000  0   -6775689.731     25243.490   1236860.827
10 0 59376  65382.000000  0   -6877556.643    205694.277    338296.790
10 0 59376  65502.000000  0   -6856077.812    383254.227   -566224.543
10 0 59376  65622.000000  0   -6711787.690    552669.517  -1460786.148
10 0 59376  65742.000000  0   -6447475.522    708862.335  -2329666.793
10 0 59376  65862.000000  0   -6068126.117    847059.266  -3157623.620
10 0 59376  65982.000000  0   -5580815.492    962912.599  -3930166.284
10 0 59376  66102.000000  0   -4994564.946   1052610.748  -4633810.854
10 0 59376  66222.000000  0   -4320161.046   1112975.436  -5256311.635
10 0 59376  66342.000000  0   -3569945.423   1141543.560  -5786866.743
10 0 59376  66462.000000  0   -2757580.344   1136631.962  -6216295.553
10 0 59376  66582.000000  0   -1897795.015   1097383.953  -6537185.987
10 0 59376  66702.000000  0   -1006116.946   1023798.695  -6744011.304
10 0 59376  66822.000000  0     -98593.994    916741.150  -6833213.997
10 0 59376  66942.000000  0     808487.227    777933.573  -6803259.637
10 0 59376  67062.000000  0    1698886.092    609928.338  -6654662.938
10 0 59376  67182.000000  0    2556693.349    416062.172  -6389980.048
10 0 59376  67302.000000  0    3366609.862    200393.127  -6013769.223
10 0 59376  67422.000000  0    4114216.343    -32379.695  -5532519.629
10 0 59376  67542.000000  0    4786228.938   -277012.426  -4954550.122
10 0 59376  67662.000000  0    5370740.091   -527826.705  -4289877.840
10 0 59376  67782.000000  0    5857437.502   -778832.881  -3550054.439
10 0 59376  67902.000000  0    6237796.247  -1023863.480  -2747973.832
10 0 59376  68022.000000  0    6505240.368  -1256714.642  -1897653.050
10 0 59376  68142.000000  0    6655269.337  -1471291.624  -1013988.678
10 0 59376  68262.000000  0    6685544.629  -1661754.959   -112493.664
10 0 59376  68382.000000  0    6595934.695  -1822663.850    790980.094
10 0 59376  68502.000000  0    6388515.386  -1949112.920   1680528.858
10 0 59376  68622.000000  0    6067525.515  -2036858.853   2540485.726
10 0 59376  68742.000000  0    5639278.902  -2082433.113   3355705.886
10 0 59376  68862.000000  0    5112034.013  -2083237.765   4111840.292
10 0 59376  68982.000000  0    4495826.382  -2037622.560   4795591.650
99
